[{"OBJECT_NAME":"STARLINK-30283","OBJECT_ID":"2023-124T","EPOCH":"2026-03-09T16:19:23.853216","MEAN_MOTION":15.30196514,"ECCENTRICITY":0.00013447,"INCLINATION":53.1595,"RA_OF_ASC_NODE":207.0334,"ARG_OF_PERICENTER":88.9333,"MEAN_ANOMALY":271.1822,"EPHEMERIS_TYPE":0,"CLASSIFICATION_TYPE":"U","NORAD_CAT_ID":57680,"ELEMENT_SET_NO":999,"REV_AT_EPOCH":14356,"BSTAR":7.0780268e-5,"MEAN_MOTION_DOT":1.737e-5,"MEAN_MOTION_DDOT":0},{"OBJECT_NAME":"TRANSPORTER-1 OBJECT L","OBJECT_ID":"2021-006L","EPOCH":"2026-03-09T22:38:42.795168","MEAN_MOTION":15.33192932,"ECCENTRICITY":0.00114726,"INCLINATION":97.2368,"RA_OF_ASC_NODE":117.6447,"ARG_OF_PERICENTER":180.5165,"MEAN_ANOMALY":179.6068,"EPHEMERIS_TYPE":0,"CLASSIFICATION_TYPE":"U","NORAD_CAT_ID":47423,"ELEMENT_SET_NO":999,"REV_AT_EPOCH":28445,"BSTAR":0.00025636794,"MEAN_MOTION_DOT":8.162e-5,"MEAN_MOTION_DDOT":0}]
